[{"OBJECT_NAME":"INMARSAT 4-F2 (SOUTHPAN/PRN 122)","OBJECT_ID":"2005-044A","EPOCH":"2026-03-07T07:45:18.412992","MEAN_MOTION":1.00271561,"ECCENTRICITY":0.0002739,"INCLINATION":4.9615,"RA_OF_ASC_NODE":43.8045,"ARG_OF_PERICENTER":326.01,"MEAN_ANOMALY":55.0374,"EPHEMERIS_TYPE":0,"CLASSIFICATION_TYPE":"U","NORAD_CAT_ID":28899,"ELEMENT_SET_NO":999,"REV_AT_EPOCH":7450,"BSTAR":0,"MEAN_MOTION_DOT":-2.61e-6,"MEAN_MOTION_DDOT":0},{"OBJECT_NAME":"GSAT-8 (GAGAN/PRN 127)","OBJECT_ID":"2011-022A","EPOCH":"2026-03-07T05:28:38.887104","MEAN_MOTION":1.00273571,"ECCENTRICITY":0.0007117,"INCLINATION":1.8673,"RA_OF_ASC_NODE":83.1201,"ARG_OF_PERICENTER":216.7605,"MEAN_ANOMALY":2.2743,"EPHEMERIS_TYPE":0,"CLASSIFICATION_TYPE":"U","NORAD_CAT_ID":37605,"ELEMENT_SET_NO":999,"REV_AT_EPOCH":5219,"BSTAR":0,"MEAN_MOTION_DOT":8.3e-7,"MEAN_MOTION_DDOT":0},{"OBJECT_NAME":"LUCH 5A (SDCM/PRN 140)","OBJECT_ID":"2011-074B","EPOCH":"2026-03-07T18:08:13.295616","MEAN_MOTION":1.00276314,"ECCENTRICITY":0.0003819,"INCLINATION":8.4953,"RA_OF_ASC_NODE":75.296,"ARG_OF_PERICENTER":249.7918,"MEAN_ANOMALY":279.566,"EPHEMERIS_TYPE":0,"CLASSIFICATION_TYPE":"U","NORAD_CAT_ID":37951,"ELEMENT_SET_NO":999,"REV_AT_EPOCH":5203,"BSTAR":0,"MEAN_MOTION_DOT":-4.7e-7,"MEAN_MOTION_DDOT":0},{"OBJECT_NAME":"SES-5 (EGNOS/PRN 136)","OBJECT_ID":"2012-036A","EPOCH":"2026-03-07T06:22:38.729856","MEAN_MOTION":1.00271655,"ECCENTRICITY":0.00019036,"INCLINATION":0.0605,"RA_OF_ASC_NODE":309.0724,"ARG_OF_PERICENTER":34.6011,"MEAN_ANOMALY":281.9281,"EPHEMERIS_TYPE":0,"CLASSIFICATION_TYPE":"U","NORAD_CAT_ID":38652,"ELEMENT_SET_NO":999,"REV_AT_EPOCH":4343,"BSTAR":0,"MEAN_MOTION_DOT":3.1e-7,"MEAN_MOTION_DDOT":0},{"OBJECT_NAME":"GSAT-10 (GAGAN/PRN 128)","OBJECT_ID":"2012-051B","EPOCH":"2026-03-07T15:27:52.979616","MEAN_MOTION":1.0027335,"ECCENTRICITY":0.00046479,"INCLINATION":0.0654,"RA_OF_ASC_NODE":261.4568,"ARG_OF_PERICENTER":178.1977,"MEAN_ANOMALY":40.6446,"EPHEMERIS_TYPE":0,"CLASSIFICATION_TYPE":"U","NORAD_CAT_ID":38779,"ELEMENT_SET_NO":999,"REV_AT_EPOCH":4908,"BSTAR":0,"MEAN_MOTION_DOT":-1.66e-6,"MEAN_MOTION_DDOT":0},{"OBJECT_NAME":"LUCH 5B (SDCM/PRN 125)","OBJECT_ID":"2012-061A","EPOCH":"2026-03-07T05:17:02.629248","MEAN_MOTION":1.00271873,"ECCENTRICITY":0.0003664,"INCLINATION":10.2667,"RA_OF_ASC_NODE":50.8773,"ARG_OF_PERICENTER":228.4082,"MEAN_ANOMALY":308.5934,"EPHEMERIS_TYPE":0,"CLASSIFICATION_TYPE":"U","NORAD_CAT_ID":38977,"ELEMENT_SET_NO":999,"REV_AT_EPOCH":4858,"BSTAR":0,"MEAN_MOTION_DOT":-1.38e-6,"MEAN_MOTION_DDOT":0},{"OBJECT_NAME":"ASTRA 5B (EGNOS/PRN 123)","OBJECT_ID":"2014-011B","EPOCH":"2026-03-07T06:06:38.818944","MEAN_MOTION":1.00272553,"ECCENTRICITY":0.0003996,"INCLINATION":0.0851,"RA_OF_ASC_NODE":301.39,"ARG_OF_PERICENTER":29.0822,"MEAN_ANOMALY":309.6237,"EPHEMERIS_TYPE":0,"CLASSIFICATION_TYPE":"U","NORAD_CAT_ID":39617,"ELEMENT_SET_NO":999,"REV_AT_EPOCH":4364,"BSTAR":0,"MEAN_MOTION_DOT":1.35e-6,"MEAN_MOTION_DDOT":0},{"OBJECT_NAME":"LUCH 5V (SDCM/PRN 141)","OBJECT_ID":"2014-023A","EPOCH":"2026-03-07T00:40:36.633792","MEAN_MOTION":1.00271257,"ECCENTRICITY":0.00030759,"INCLINATION":4.8814,"RA_OF_ASC_NODE":70.7503,"ARG_OF_PERICENTER":285.6629,"MEAN_ANOMALY":273.2102,"EPHEMERIS_TYPE":0,"CLASSIFICATION_TYPE":"U","NORAD_CAT_ID":39727,"ELEMENT_SET_NO":999,"REV_AT_EPOCH":4333,"BSTAR":0,"MEAN_MOTION_DOT":-2.7e-6,"MEAN_MOTION_DDOT":0},{"OBJECT_NAME":"GSAT-15 (GAGAN/PRN 139)","OBJECT_ID":"2015-065A","EPOCH":"2026-03-07T09:35:38.772384","MEAN_MOTION":1.00272198,"ECCENTRICITY":0.00012092,"INCLINATION":0.0823,"RA_OF_ASC_NODE":269.5034,"ARG_OF_PERICENTER":111.2106,"MEAN_ANOMALY":21.7781,"EPHEMERIS_TYPE":0,"CLASSIFICATION_TYPE":"U","NORAD_CAT_ID":41028,"ELEMENT_SET_NO":999,"REV_AT_EPOCH":3777,"BSTAR":0,"MEAN_MOTION_DOT":-2.59e-6,"MEAN_MOTION_DDOT":0},{"OBJECT_NAME":"EUTELSAT 117 WEST B (WAAS/PRN 131)","OBJECT_ID":"2016-038B","EPOCH":"2026-03-07T08:34:38.622144","MEAN_MOTION":1.00270967,"ECCENTRICITY":4.391e-5,"INCLINATION":0.0164,"RA_OF_ASC_NODE":306.7826,"ARG_OF_PERICENTER":312.095,"MEAN_ANOMALY":277.8575,"EPHEMERIS_TYPE":0,"CLASSIFICATION_TYPE":"U","NORAD_CAT_ID":41589,"ELEMENT_SET_NO":999,"REV_AT_EPOCH":3564,"BSTAR":0,"MEAN_MOTION_DOT":-1.3e-7,"MEAN_MOTION_DDOT":0},{"OBJECT_NAME":"SES-15 (WAAS/PRN 133)","OBJECT_ID":"2017-026A","EPOCH":"2026-03-07T12:33:38.603808","MEAN_MOTION":1.00274261,"ECCENTRICITY":0.00010161,"INCLINATION":0.0427,"RA_OF_ASC_NODE":318.1999,"ARG_OF_PERICENTER":33.8962,"MEAN_ANOMALY":232.3748,"EPHEMERIS_TYPE":0,"CLASSIFICATION_TYPE":"U","NORAD_CAT_ID":42709,"ELEMENT_SET_NO":999,"REV_AT_EPOCH":641,"BSTAR":0,"MEAN_MOTION_DOT":5.8e-7,"MEAN_MOTION_DDOT":0},{"OBJECT_NAME":"QZS-2 (QZSS/PRN 194)","OBJECT_ID":"2017-028A","EPOCH":"2026-03-06T21:25:38.719200","MEAN_MOTION":1.00261347,"ECCENTRICITY":0.0745331,"INCLINATION":39.5865,"RA_OF_ASC_NODE":244.6431,"ARG_OF_PERICENTER":270.3514,"MEAN_ANOMALY":112.5324,"EPHEMERIS_TYPE":0,"CLASSIFICATION_TYPE":"U","NORAD_CAT_ID":42738,"ELEMENT_SET_NO":999,"REV_AT_EPOCH":660,"BSTAR":0,"MEAN_MOTION_DOT":-1.62e-6,"MEAN_MOTION_DDOT":0},{"OBJECT_NAME":"QZS-3 (QZSS/PRN 199)","OBJECT_ID":"2017-048A","EPOCH":"2026-03-07T14:27:52.327008","MEAN_MOTION":1.00274879,"ECCENTRICITY":0.00023006,"INCLINATION":0.0667,"RA_OF_ASC_NODE":211.2342,"ARG_OF_PERICENTER":151.1691,"MEAN_ANOMALY":146.8863,"EPHEMERIS_TYPE":0,"CLASSIFICATION_TYPE":"U","NORAD_CAT_ID":42917,"ELEMENT_SET_NO":999,"REV_AT_EPOCH":3124,"BSTAR":0,"MEAN_MOTION_DOT":-3.49e-6,"MEAN_MOTION_DDOT":0},{"OBJECT_NAME":"QZS-4 (QZSS/PRN 195)","OBJECT_ID":"2017-062A","EPOCH":"2026-03-05T17:47:25.010880","MEAN_MOTION":1.00280691,"ECCENTRICITY":0.07484947,"INCLINATION":40.1722,"RA_OF_ASC_NODE":344.8064,"ARG_OF_PERICENTER":269.915,"MEAN_ANOMALY":316.0784,"EPHEMERIS_TYPE":0,"CLASSIFICATION_TYPE":"U","NORAD_CAT_ID":42965,"ELEMENT_SET_NO":999,"REV_AT_EPOCH":3076,"BSTAR":0,"MEAN_MOTION_DOT":-3.41e-6,"MEAN_MOTION_DDOT":0},{"OBJECT_NAME":"BEIDOU-3 G1 (PRN 130)","OBJECT_ID":"2018-085A","EPOCH":"2026-03-07T10:45:38.812896","MEAN_MOTION":1.00267773,"ECCENTRICITY":0.00016157,"INCLINATION":2.8182,"RA_OF_ASC_NODE":100.297,"ARG_OF_PERICENTER":13.9526,"MEAN_ANOMALY":352.314,"EPHEMERIS_TYPE":0,"CLASSIFICATION_TYPE":"U","NORAD_CAT_ID":43683,"ELEMENT_SET_NO":999,"REV_AT_EPOCH":2704,"BSTAR":0,"MEAN_MOTION_DOT":-2.8e-6,"MEAN_MOTION_DDOT":0},{"OBJECT_NAME":"EUTELSAT 5 WEST B (EGNOS/PRN 121)","OBJECT_ID":"2019-067A","EPOCH":"2026-03-07T07:02:52.482336","MEAN_MOTION":1.00273225,"ECCENTRICITY":0.00032227,"INCLINATION":0.0897,"RA_OF_ASC_NODE":313.6187,"ARG_OF_PERICENTER":44.5352,"MEAN_ANOMALY":267.5427,"EPHEMERIS_TYPE":0,"CLASSIFICATION_TYPE":"U","NORAD_CAT_ID":44624,"ELEMENT_SET_NO":999,"REV_AT_EPOCH":2341,"BSTAR":0,"MEAN_MOTION_DOT":-4.4e-7,"MEAN_MOTION_DDOT":0},{"OBJECT_NAME":"BEIDOU-3 G2 (PRN 144)","OBJECT_ID":"2020-017A","EPOCH":"2026-03-07T15:27:35.727264","MEAN_MOTION":1.00272784,"ECCENTRICITY":0.0002731,"INCLINATION":2.6606,"RA_OF_ASC_NODE":45.6423,"ARG_OF_PERICENTER":312.4913,"MEAN_ANOMALY":119.1467,"EPHEMERIS_TYPE":0,"CLASSIFICATION_TYPE":"U","NORAD_CAT_ID":45344,"ELEMENT_SET_NO":999,"REV_AT_EPOCH":2224,"BSTAR":0,"MEAN_MOTION_DOT":-1.41e-6,"MEAN_MOTION_DDOT":0}]
